{"type": "FeatureCollection", "features": [ {"type": "Feature", "properties": {"norad_id": 34761, "name": "COSMOS 2251 DEB", "group": "cosmos-2251-debris", "lat": 56.92223080092078, "lon": 47.9762048361453, "alt_km": 733.5555542200273, "timestamp": "2025-12-02T08:59:33.109915+00:00", "meta": {"OBJECT_NAME": "COSMOS 2251 DEB", "OBJECT_ID": "1993-036AAF", "EPOCH": "2025-12-01T21:01:32.067840", "MEAN_MOTION": 14.37989243, "ECCENTRICITY": 0.0036081, "INCLINATION": 74.0289, "RA_OF_ASC_NODE": 22.8107, "ARG_OF_PERICENTER": 60.506, "MEAN_ANOMALY": 299.9684, "EPHEMERIS_TYPE": 0, "CLASSIFICATION_TYPE": "U", "NORAD_CAT_ID": 34761, "ELEMENT_SET_NO": 999, "REV_AT_EPOCH": 87493, "BSTAR": 0.00062524, "MEAN_MOTION_DOT": 1.879e-05, "MEAN_MOTION_DDOT": 0}, "tle": {"line1": "1 34761U 93036AAF 25335.87606560  .00001879  00000+0  62524-3 0  9994", "line2": "2 34761  74.0289  22.8107 0036081  60.5060 299.9684 14.37989243874936"}}, "geometry": {"type": "Point", "coordinates": [47.9762048361453, 56.92223080092078]}}, {"type": "Feature", "properties": {"norad_id": 34784, "name": "COSMOS 2251 DEB", "group": "cosmos-2251-debris", "lat": 14.549117173208767, "lon": 159.92823280938288, "alt_km": 656.5564686469534, "timestamp": "2025-12-02T08:59:33.109925+00:00", "meta": {"OBJECT_NAME": "COSMOS 2251 DEB", "OBJECT_ID": "1993-036AAM", "EPOCH": "2025-12-01T10:52:25.648896", "MEAN_MOTION": 14.60696755, "ECCENTRICITY": 0.00498837, "INCLINATION": 74.0077, "RA_OF_ASC_NODE": 345.9597, "ARG_OF_PERICENTER": 158.6114, "MEAN_ANOMALY": 201.7153, "EPHEMERIS_TYPE": 0, "CLASSIFICATION_TYPE": "U", "NORAD_CAT_ID": 34784, "ELEMENT_SET_NO": 999, "REV_AT_EPOCH": 88370, "BSTAR": 0.00052029287, "MEAN_MOTION_DOT": 2.55e-05, "MEAN_MOTION_DDOT": 0}, "tle": {"line1": "1 34784U 93036AAM 25335.45307464  .00002550  00000+0  52029-3 0  9990", "line2": "2 34784  74.0077 345.9597 0049883 158.6114 201.7153 14.60696755883707"}}, "geometry": {"type": "Point", "coordinates": [159.92823280938288, 14.549117173208767]}}, {"type": "Feature", "properties": {"norad_id": 34790, "name": "COSMOS 2251 DEB", "group": "cosmos-2251-debris", "lat": -16.72042659160029, "lon": 87.29396303178783, "alt_km": 859.4262436122699, "timestamp": "2025-12-02T08:59:33.109935+00:00", "meta": {"OBJECT_NAME": "COSMOS 2251 DEB", "OBJECT_ID": "1993-036AAT", "EPOCH": "2025-12-01T20:32:04.290144", "MEAN_MOTION": 14.24562024, "ECCENTRICITY": 0.0100684, "INCLINATION": 74.0544, "RA_OF_ASC_NODE": 263.3011, "ARG_OF_PERICENTER": 327.2219, "MEAN_ANOMALY": 89.9576, "EPHEMERIS_TYPE": 0, "CLASSIFICATION_TYPE": "U", "NORAD_CAT_ID": 34790, "ELEMENT_SET_NO": 999, "REV_AT_EPOCH": 86418, "BSTAR": 0.0011063, "MEAN_MOTION_DOT": 2.681e-05, "MEAN_MOTION_DDOT": 0}, "tle": {"line1": "1 34790U 93036AAT 25335.85560521  .00002681  00000+0  11063-2 0  9993", "line2": "2 34790  74.0544 263.3011 0100684 327.2219  89.9576 14.24562024864181"}}, "geometry": {"type": "Point", "coordinates": [87.29396303178783, -16.72042659160029]}}, {"type": "Feature", "properties": {"norad_id": 34792, "name": "COSMOS 2251 DEB", "group": "cosmos-2251-debris", "lat": 56.440270134555654, "lon": -145.02604829527573, "alt_km": 707.5184392520077, "timestamp": "2025-12-02T08:59:33.109946+00:00", "meta": {"OBJECT_NAME": "COSMOS 2251 DEB", "OBJECT_ID": "1993-036AAV", "EPOCH": "2025-12-02T01:09:50.525280", "MEAN_MOTION": 14.55818858, "ECCENTRICITY": 0.001264, "INCLINATION": 74.018, "RA_OF_ASC_NODE": 189.997, "ARG_OF_PERICENTER": 283.5619, "MEAN_ANOMALY": 227.655, "EPHEMERIS_TYPE": 0, "CLASSIFICATION_TYPE": "U", "NORAD_CAT_ID": 34792, "ELEMENT_SET_NO": 999, "REV_AT_EPOCH": 87494, "BSTAR": 0.00097442, "MEAN_MOTION_DOT": 4.249e-05, "MEAN_MOTION_DDOT": 0}, "tle": {"line1": "1 34792U 93036AAV 25336.04850145  .00004249  00000+0  97442-3 0  9999", "line2": "2 34792  74.0180 189.9970 0012640 283.5619 227.6550 14.55818858874949"}}, "geometry": {"type": "Point", "coordinates": [-145.02604829527573, 56.440270134555654]}}, {"type": "Feature", "properties": {"norad_id": 34793, "name": "COSMOS 2251 DEB", "group": "cosmos-2251-debris", "lat": 54.1425044952659, "lon": 66.12882793787665, "alt_km": 737.552983873823, "timestamp": "2025-12-02T08:59:33.109956+00:00", "meta": {"OBJECT_NAME": "COSMOS 2251 DEB", "OBJECT_ID": "1993-036AAW", "EPOCH": "2025-12-01T16:03:41.040000", "MEAN_MOTION": 14.38612552, "ECCENTRICITY": 0.0049916, "INCLINATION": 74.0026, "RA_OF_ASC_NODE": 270.8181, "ARG_OF_PERICENTER": 67.9315, "MEAN_ANOMALY": 1.9292, "EPHEMERIS_TYPE": 0, "CLASSIFICATION_TYPE": "U", "NORAD_CAT_ID": 34793, "ELEMENT_SET_NO": 999, "REV_AT_EPOCH": 87171, "BSTAR": 0.00029565, "MEAN_MOTION_DOT": 8.92e-06, "MEAN_MOTION_DDOT": 0}, "tle": {"line1": "1 34793U 93036AAW 25335.66922500  .00000892  00000+0  29565-3 0  9993", "line2": "2 34793  74.0026 270.8181 0049916  67.9315   1.9292 14.38612552871718"}}, "geometry": {"type": "Point", "coordinates": [66.12882793787665, 54.1425044952659]}}, {"type": "Feature", "properties": {"norad_id": 34796, "name": "COSMOS 2251 DEB", "group": "cosmos-2251-debris", "lat": -21.134062459229437, "lon": 62.130351329764736, "alt_km": 787.8683901530385, "timestamp": "2025-12-02T08:59:33.109966+00:00", "meta": {"OBJECT_NAME": "COSMOS 2251 DEB", "OBJECT_ID": "1993-036AAZ", "EPOCH": "2025-12-01T23:50:12.130944", "MEAN_MOTION": 14.48591694, "ECCENTRICITY": 0.0100071, "INCLINATION": 74.031, "RA_OF_ASC_NODE": 236.4902, "ARG_OF_PERICENTER": 340.9076, "MEAN_ANOMALY": 33.126, "EPHEMERIS_TYPE": 0, "CLASSIFICATION_TYPE": "U", "NORAD_CAT_ID": 34796, "ELEMENT_SET_NO": 999, "REV_AT_EPOCH": 87872, "BSTAR": 0.00088662, "MEAN_MOTION_DOT": 3.524e-05, "MEAN_MOTION_DDOT": 0}, "tle": {"line1": "1 34796U 93036AAZ 25335.99319596  .00003524  00000+0  88662-3 0  9995", "line2": "2 34796  74.0310 236.4902 0100071 340.9076  33.1260 14.48591694878728"}}, "geometry": {"type": "Point", "coordinates": [62.130351329764736, -21.134062459229437]}}, {"type": "Feature", "properties": {"norad_id": 34797, "name": "COSMOS 2251 DEB", "group": "cosmos-2251-debris", "lat": -7.536049608800694, "lon": -58.53118695760996, "alt_km": 717.9736291611034, "timestamp": "2025-12-02T08:59:33.109976+00:00", "meta": {"OBJECT_NAME": "COSMOS 2251 DEB", "OBJECT_ID": "1993-036ABA", "EPOCH": "2025-12-01T18:48:13.576608", "MEAN_MOTION": 14.42515902, "ECCENTRICITY": 0.0072543, "INCLINATION": 73.9762, "RA_OF_ASC_NODE": 120.3905, "ARG_OF_PERICENTER": 235.5491, "MEAN_ANOMALY": 123.8797, "EPHEMERIS_TYPE": 0, "CLASSIFICATION_TYPE": "U", "NORAD_CAT_ID": 34797, "ELEMENT_SET_NO": 999, "REV_AT_EPOCH": 87257, "BSTAR": 0.0022167, "MEAN_MOTION_DOT": 7.566e-05, "MEAN_MOTION_DDOT": 0}, "tle": {"line1": "1 34797U 93036ABA 25335.78349047  .00007566  00000+0  22167-2 0  9994", "line2": "2 34797  73.9762 120.3905 0072543 235.5491 123.8797 14.42515902872575"}}, "geometry": {"type": "Point", "coordinates": [-58.53118695760996, -7.536049608800694]}}, {"type": "Feature", "properties": {"norad_id": 34813, "name": "COSMOS 2251 DEB", "group": "cosmos-2251-debris", "lat": 69.27176877959134, "lon": -160.6822658907266, "alt_km": 1159.4888626620886, "timestamp": "2025-12-02T08:59:33.109986+00:00", "meta": {"OBJECT_NAME": "COSMOS 2251 DEB", "OBJECT_ID": "1993-036ABC", "EPOCH": "2025-11-03T01:59:23.955360", "MEAN_MOTION": 13.49745849, "ECCENTRICITY": 0.0451123, "INCLINATION": 73.9278, "RA_OF_ASC_NODE": 196.7226, "ARG_OF_PERICENTER": 237.9242, "MEAN_ANOMALY": 117.7316, "EPHEMERIS_TYPE": 0, "CLASSIFICATION_TYPE": "U", "NORAD_CAT_ID": 34813, "ELEMENT_SET_NO": 999, "REV_AT_EPOCH": 81120, "BSTAR": 0.0019861882, "MEAN_MOTION_DOT": 2.346e-05, "MEAN_MOTION_DDOT": 0}, "tle": {"line1": "1 34813U 93036ABC 25307.08291615  .00002346  00000+0  19862-2 0  9991", "line2": "2 34813  73.9278 196.7226 0451123 237.9242 117.7316 13.49745849811207"}}, "geometry": {"type": "Point", "coordinates": [-160.6822658907266, 69.27176877959134]}}, {"type": "Feature", "properties": {"norad_id": 34814, "name": "COSMOS 2251 DEB", "group": "cosmos-2251-debris", "lat": 27.467095549628603, "lon": -6.702798719413154, "alt_km": 803.6597511719465, "timestamp": "2025-12-02T08:59:33.109996+00:00", "meta": {"OBJECT_NAME": "COSMOS 2251 DEB", "OBJECT_ID": "1993-036ABD", "EPOCH": "2025-12-02T00:39:28.450368", "MEAN_MOTION": 14.3681237, "ECCENTRICITY": 0.0056841, "INCLINATION": 73.8957, "RA_OF_ASC_NODE": 345.3033, "ARG_OF_PERICENTER": 236.6191, "MEAN_ANOMALY": 156.2908, "EPHEMERIS_TYPE": 0, "CLASSIFICATION_TYPE": "U", "NORAD_CAT_ID": 34814, "ELEMENT_SET_NO": 999, "REV_AT_EPOCH": 87179, "BSTAR": 0.00094196, "MEAN_MOTION_DOT": 2.807e-05, "MEAN_MOTION_DDOT": 0}, "tle": {"line1": "1 34814U 93036ABD 25336.02741262  .00002807  00000+0  94196-3 0  9992", "line2": "2 34814  73.8957 345.3033 0056841 236.6191 156.2908 14.36812370871792"}}, "geometry": {"type": "Point", "coordinates": [-6.702798719413154, 27.467095549628603]}}, {"type": "Feature", "properties": {"norad_id": 34815, "name": "COSMOS 2251 DEB", "group": "cosmos-2251-debris", "lat": 72.85310100244574, "lon": -29.84853985819925, "alt_km": 642.1548395590607, "timestamp": "2025-12-02T08:59:33.110006+00:00", "meta": {"OBJECT_NAME": "COSMOS 2251 DEB", "OBJECT_ID": "1993-036ABE", "EPOCH": "2025-12-02T02:07:09.524352", "MEAN_MOTION": 14.7805266, "ECCENTRICITY": 0.0059053, "INCLINATION": 74.0456, "RA_OF_ASC_NODE": 262.7101, "ARG_OF_PERICENTER": 334.1723, "MEAN_ANOMALY": 25.6506, "EPHEMERIS_TYPE": 0, "CLASSIFICATION_TYPE": "U", "NORAD_CAT_ID": 34815, "ELEMENT_SET_NO": 999, "REV_AT_EPOCH": 88470, "BSTAR": 0.0014104, "MEAN_MOTION_DOT": 0.00010472, "MEAN_MOTION_DDOT": 0}, "tle": {"line1": "1 34815U 93036ABE 25336.08830468  .00010472  00000+0  14104-2 0  9993", "line2": "2 34815  74.0456 262.7101 0059053 334.1723  25.6506 14.78052660884703"}}, "geometry": {"type": "Point", "coordinates": [-29.84853985819925, 72.85310100244574]}}]}